start=new Date('2021-12-02T00:00:00.000Z').valueOf();
sats=[{"SITE":"AFETR","TLE_LINE1":"1 46769U 20074AG  21335.74572161  .00019416  00000-0  45387-3 0  9993","COUNTRY_CODE":"US","ELEMENT_SET_NO":"999","RA_OF_ASC_NODE":"131.5595","BSTAR":"0.00045387000000","ECCENTRICITY":"0.00016840","ARG_OF_PERICENTER":"27.6255","MEAN_MOTION_DOT":"0.00019416","REF_FRAME":"TEME","TLE_LINE2":"2 46769  53.0555 131.5595 0001684  27.6255 332.4839 15.42198212 61275","EPOCH":"2021-12-01T17:53:50.347104","MEAN_ANOMALY":"332.4839","MEAN_MOTION_DDOT":"0.0000000000000","RCS_SIZE":"LARGE","REV_AT_EPOCH":"6127","SEMIMAJOR_AXIS":"6817.760","FILE":"3229291","DECAY_DATE":null,"PERIOD":"93.373","GP_ID":"190865348","PERIAPSIS":"438.477","OBJECT_ID":"2020-074AG","OBJECT_NAME":"STARLINK-1919","OBJECT_TYPE":"PAYLOAD","APOAPSIS":"440.773","MEAN_ELEMENT_THEORY":"SGP4","EPHEMERIS_TYPE":"0","CENTER_NAME":"EARTH","LAUNCH_DATE":"2020-10-24","TIME_SYSTEM":"UTC","CLASSIFICATION_TYPE":"U","INCLINATION":"53.0555","MEAN_MOTION":"15.42198212","NORAD_CAT_ID":"46769"},{"PERIAPSIS":"545.511","GP_ID":"190859812","REV_AT_EPOCH":"6145","RCS_SIZE":"LARGE","FILE":"3229140","SEMIMAJOR_AXIS":"6925.341","DECAY_DATE":null,"PERIOD":"95.592","OBJECT_TYPE":"PAYLOAD","MEAN_ELEMENT_THEORY":"SGP4","APOAPSIS":"548.901","OBJECT_NAME":"STARLINK-1932","OBJECT_ID":"2020-074AH","LAUNCH_DATE":"2020-10-24","CLASSIFICATION_TYPE":"U","TIME_SYSTEM":"UTC","CENTER_NAME":"EARTH","EPHEMERIS_TYPE":"0","NORAD_CAT_ID":"46770","MEAN_MOTION":"15.06402498","INCLINATION":"53.0533","ELEMENT_SET_NO":"999","RA_OF_ASC_NODE":"136.2033","TLE_LINE1":"1 46770U 20074AH  21335.47521585  .00001164  00000-0  97047-4 0  9991","COUNTRY_CODE":"US","SITE":"AFETR","ARG_OF_PERICENTER":"81.8283","ECCENTRICITY":"0.00024470","BSTAR":"0.00009704700000","TLE_LINE2":"2 46770  53.0533 136.2033 0002447  81.8283 278.2983 15.06402498 61454","EPOCH":"2021-12-01T11:24:18.649440","REF_FRAME":"TEME","MEAN_MOTION_DOT":"0.00001164","MEAN_MOTION_DDOT":"0.0000000000000","MEAN_ANOMALY":"278.2983"},{"NORAD_CAT_ID":"46772","MEAN_MOTION":"15.06394722","INCLINATION":"53.0536","LAUNCH_DATE":"2020-10-24","TIME_SYSTEM":"UTC","CLASSIFICATION_TYPE":"U","CENTER_NAME":"EARTH","EPHEMERIS_TYPE":"0","OBJECT_TYPE":"PAYLOAD","APOAPSIS":"548.600","MEAN_ELEMENT_THEORY":"SGP4","OBJECT_NAME":"STARLINK-1936","OBJECT_ID":"2020-074AK","PERIAPSIS":"545.859","GP_ID":"190860563","REV_AT_EPOCH":"6145","RCS_SIZE":"LARGE","PERIOD":"95.592","FILE":"3229140","DECAY_DATE":null,"SEMIMAJOR_AXIS":"6925.365","MEAN_MOTION_DDOT":"0.0000000000000","MEAN_ANOMALY":"274.7067","EPOCH":"2021-12-01T11:04:25.806720","TLE_LINE2":"2 46772  53.0536 136.2718 0001979  85.4148 274.7067 15.06394722 61452","REF_FRAME":"TEME","MEAN_MOTION_DOT":"0.00000919","ARG_OF_PERICENTER":"85.4148","ECCENTRICITY":"0.00019790","BSTAR":"0.00008064100000","RA_OF_ASC_NODE":"136.2718","ELEMENT_SET_NO":"999","TLE_LINE1":"1 46772U 20074AK  21335.46140980  .00000919  00000-0  80641-4 0  9997","COUNTRY_CODE":"US","SITE":"AFETR"},{"BSTAR":"0.00055229000000","ARG_OF_PERICENTER":"108.7010","ECCENTRICITY":"0.00015670","SITE":"AFETR","TLE_LINE1":"1 46774U 20074AM  21335.46505127  .00008435  00000-0  55229-3 0  9991","COUNTRY_CODE":"US","ELEMENT_SET_NO":"999","RA_OF_ASC_NODE":"134.6604","MEAN_ANOMALY":"251.4150","MEAN_MOTION_DDOT":"0.0000000000000","MEAN_MOTION_DOT":"0.00008435","REF_FRAME":"TEME","EPOCH":"2021-12-01T11:09:40.429728","TLE_LINE2":"2 46774  53.0517 134.6604 0001567 108.7010 251.4150 15.08511971 61486","OBJECT_ID":"2020-074AM","OBJECT_NAME":"STARLINK-1939","OBJECT_TYPE":"PAYLOAD","APOAPSIS":"541.832","MEAN_ELEMENT_THEORY":"SGP4","RCS_SIZE":"LARGE","REV_AT_EPOCH":"6148","SEMIMAJOR_AXIS":"6918.883","FILE":"3229140","DECAY_DATE":null,"PERIOD":"95.458","GP_ID":"190860814","PERIAPSIS":"539.664","INCLINATION":"53.0517","MEAN_MOTION":"15.08511971","NORAD_CAT_ID":"46774","EPHEMERIS_TYPE":"0","CENTER_NAME":"EARTH","LAUNCH_DATE":"2020-10-24","TIME_SYSTEM":"UTC","CLASSIFICATION_TYPE":"U"},{"MEAN_ANOMALY":"320.2215","MEAN_MOTION_DDOT":"0.0000000000000","MEAN_MOTION_DOT":"0.00513925","REF_FRAME":"TEME","TLE_LINE2":"2 46775  53.0552 122.8988 0001921  39.8942 320.2215 15.67450722 61356","EPOCH":"2021-12-01T21:10:39.398016","BSTAR":"0.00437520000000","ARG_OF_PERICENTER":"39.8942","ECCENTRICITY":"0.00019210","SITE":"AFETR","TLE_LINE1":"1 46775U 20074AN  21335.88240044  .00513925  00000-0  43752-2 0  9994","COUNTRY_CODE":"US","RA_OF_ASC_NODE":"122.8988","ELEMENT_SET_NO":"999","INCLINATION":"53.0552","NORAD_CAT_ID":"46775","MEAN_MOTION":"15.67450722","EPHEMERIS_TYPE":"0","CENTER_NAME":"EARTH","LAUNCH_DATE":"2020-10-24","TIME_SYSTEM":"UTC","CLASSIFICATION_TYPE":"U","OBJECT_ID":"2020-074AN","OBJECT_NAME":"STARLINK-1945","OBJECT_TYPE":"PAYLOAD","APOAPSIS":"367.497","MEAN_ELEMENT_THEORY":"SGP4","REV_AT_EPOCH":"6135","RCS_SIZE":"LARGE","FILE":"3229304","SEMIMAJOR_AXIS":"6744.337","DECAY_DATE":null,"PERIOD":"91.869","GP_ID":"190865614","PERIAPSIS":"364.906"},{"MEAN_MOTION_DOT":"-0.00000950","REF_FRAME":"TEME","EPOCH":"2021-12-01T11:25:39.139680","TLE_LINE2":"2 46776  53.0543 136.1975 0001993 101.2340 258.8873 15.06393976 61453","MEAN_ANOMALY":"258.8873","MEAN_MOTION_DDOT":"0.0000000000000","SITE":"AFETR","TLE_LINE1":"1 46776U 20074AP  21335.47614745 -.00000950  00000-0 -44863-4 0  9990","COUNTRY_CODE":"US","RA_OF_ASC_NODE":"136.1975","ELEMENT_SET_NO":"999","BSTAR":"-0.00004486300000","ECCENTRICITY":"0.00019930","ARG_OF_PERICENTER":"101.2340","EPHEMERIS_TYPE":"0","CENTER_NAME":"EARTH","LAUNCH_DATE":"2020-10-24","CLASSIFICATION_TYPE":"U","TIME_SYSTEM":"UTC","INCLINATION":"53.0543","MEAN_MOTION":"15.06393976","NORAD_CAT_ID":"46776","REV_AT_EPOCH":"6145","RCS_SIZE":"LARGE","FILE":"3229140","DECAY_DATE":null,"SEMIMAJOR_AXIS":"6925.367","PERIOD":"95.593","GP_ID":"190860312","PERIAPSIS":"545.852","OBJECT_ID":"2020-074AP","OBJECT_NAME":"STARLINK-1946","OBJECT_TYPE":"PAYLOAD","APOAPSIS":"548.612","MEAN_ELEMENT_THEORY":"SGP4"},{"ELEMENT_SET_NO":"999","RA_OF_ASC_NODE":"110.8285","COUNTRY_CODE":"US","TLE_LINE1":"1 46779U 20074AS  21335.55770198 -.00000353  00000-0 -47639-5 0  9999","SITE":"AFETR","ARG_OF_PERICENTER":"93.4413","ECCENTRICITY":"0.00015690","BSTAR":"-0.00000476390000","EPOCH":"2021-12-01T13:23:05.451072","TLE_LINE2":"2 46779  53.0549 110.8285 0001569  93.4413 266.6755 15.06404177 61819","REF_FRAME":"TEME","MEAN_MOTION_DOT":"-0.00000353","MEAN_MOTION_DDOT":"0.0000000000000","MEAN_ANOMALY":"266.6755","PERIAPSIS":"546.114","GP_ID":"190861063","PERIOD":"95.592","FILE":"3229140","DECAY_DATE":null,"SEMIMAJOR_AXIS":"6925.336","REV_AT_EPOCH":"6181","RCS_SIZE":"LARGE","MEAN_ELEMENT_THEORY":"SGP4","APOAPSIS":"548.287","OBJECT_TYPE":"PAYLOAD","OBJECT_NAME":"STARLINK-1798","OBJECT_ID":"2020-074AS","CLASSIFICATION_TYPE":"U","TIME_SYSTEM":"UTC","LAUNCH_DATE":"2020-10-24","CENTER_NAME":"EARTH","EPHEMERIS_TYPE":"0","MEAN_MOTION":"15.06404177","NORAD_CAT_ID":"46779","INCLINATION":"53.0549"},{"NORAD_CAT_ID":"46780","MEAN_MOTION":"15.06394083","INCLINATION":"53.0549","CENTER_NAME":"EARTH","LAUNCH_DATE":"2020-10-24","CLASSIFICATION_TYPE":"U","TIME_SYSTEM":"UTC","EPHEMERIS_TYPE":"0","OBJECT_NAME":"STARLINK-1832","OBJECT_TYPE":"PAYLOAD","MEAN_ELEMENT_THEORY":"SGP4","APOAPSIS":"548.246","OBJECT_ID":"2020-074AT","GP_ID":"190864567","PERIAPSIS":"546.217","REV_AT_EPOCH":"6156","RCS_SIZE":"LARGE","SEMIMAJOR_AXIS":"6925.367","FILE":"3229237","DECAY_DATE":null,"PERIOD":"95.593","MEAN_ANOMALY":"274.8012","MEAN_MOTION_DDOT":"0.0000000000000","REF_FRAME":"TEME","TLE_LINE2":"2 46780  53.0549 110.2861 0001465  85.3145 274.8012 15.06394083 61565","EPOCH":"2021-12-01T16:18:14.220864","MEAN_MOTION_DOT":"-0.00001365","ARG_OF_PERICENTER":"85.3145","ECCENTRICITY":"0.00014650","BSTAR":"-0.00007274000000","ELEMENT_SET_NO":"999","RA_OF_ASC_NODE":"110.2861","SITE":"AFETR","TLE_LINE1":"1 46780U 20074AT  21335.67933126 -.00001365  00000-0 -72740-4 0  9990","COUNTRY_CODE":"US"},{"INCLINATION":"53.0541","NORAD_CAT_ID":"46781","MEAN_MOTION":"15.06400970","EPHEMERIS_TYPE":"0","TIME_SYSTEM":"UTC","CLASSIFICATION_TYPE":"U","LAUNCH_DATE":"2020-10-24","CENTER_NAME":"EARTH","OBJECT_ID":"2020-074AU","APOAPSIS":"548.356","MEAN_ELEMENT_THEORY":"SGP4","OBJECT_TYPE":"PAYLOAD","OBJECT_NAME":"STARLINK-1834","SEMIMAJOR_AXIS":"6925.346","FILE":"3229140","DECAY_DATE":null,"PERIOD":"95.592","REV_AT_EPOCH":"6168","RCS_SIZE":"LARGE","PERIAPSIS":"546.065","GP_ID":"190859563","MEAN_MOTION_DDOT":"0.0000000000000","MEAN_ANOMALY":"268.3795","MEAN_MOTION_DOT":"-0.00000317","EPOCH":"2021-12-01T13:32:22.603200","TLE_LINE2":"2 46781  53.0541 120.8087 0001654  91.7383 268.3795 15.06400970 61682","REF_FRAME":"TEME","BSTAR":"-0.00000236970000","ARG_OF_PERICENTER":"91.7383","ECCENTRICITY":"0.00016540","COUNTRY_CODE":"US","TLE_LINE1":"1 46781U 20074AU  21335.56415050 -.00000317  00000-0 -23697-5 0  9994","SITE":"AFETR","ELEMENT_SET_NO":"999","RA_OF_ASC_NODE":"120.8087"},{"NORAD_CAT_ID":"46782","MEAN_MOTION":"15.06397120","INCLINATION":"53.0523","CENTER_NAME":"EARTH","LAUNCH_DATE":"2020-10-24","TIME_SYSTEM":"UTC","CLASSIFICATION_TYPE":"U","EPHEMERIS_TYPE":"0","OBJECT_NAME":"STARLINK-1835","OBJECT_TYPE":"PAYLOAD","APOAPSIS":"548.202","MEAN_ELEMENT_THEORY":"SGP4","OBJECT_ID":"2020-074AV","GP_ID":"190864590","PERIAPSIS":"546.243","RCS_SIZE":"LARGE","REV_AT_EPOCH":"6155","DECAY_DATE":null,"FILE":"3229253","SEMIMAJOR_AXIS":"6925.357","PERIOD":"95.592","MEAN_ANOMALY":"266.2986","MEAN_MOTION_DDOT":"0.0000000000000","REF_FRAME":"TEME","EPOCH":"2021-12-01T16:02:19.078368","TLE_LINE2":"2 46782  53.0523 110.3376 0001414  93.8164 266.2986 15.06397120 61559","MEAN_MOTION_DOT":"-0.00001768","ECCENTRICITY":"0.00014140","ARG_OF_PERICENTER":"93.8164","BSTAR":"-0.00009980600000","ELEMENT_SET_NO":"999","RA_OF_ASC_NODE":"110.3376","SITE":"AFETR","TLE_LINE1":"1 46782U 20074AV  21335.66827637 -.00001768  00000-0 -99806-4 0  9999","COUNTRY_CODE":"US"}];
